IRIDIUM 112             
1 41925U 17003J   24191.89006707  .00000248  00000+0  81442-4 0  9992
2 41925  86.3963  23.8758 0001850  93.1095 267.0312 14.34220372391891
IRIDIUM 111             
1 41926U 17003K   24191.94715267  .00000346  00000+0  11646-3 0  9994
2 41926  86.3965  23.9069 0002129  98.9659 261.1778 14.34219920391886
IRIDIUM 113             
1 42803U 17039A   24191.71781409  .00000003  00000+0 -59326-5 0  9994
2 42803  86.3960 257.7670 0002175 100.4130 259.7311 14.34217766369781
IRIDIUM 123             
1 42804U 17039B   24191.82906186  .00000035  00000+0  53090-5 0  9994
2 42804  86.3968 289.2292 0002201  97.9016 262.2429 14.34217741368560
IRIDIUM 120             
1 42805U 17039C   24191.71147213  .00000233  00000+0  76041-4 0  9991
2 42805  86.3949 257.6440 0002318  93.1498 266.9963 14.34218175369775
IRIDIUM 115             
1 42806U 17039D   24191.73603758  .00000464  00000+0  13199-3 0  9995
2 42806  86.4488 257.6617 0002347 103.3457 256.8005 14.43274194372224
IRIDIUM 118             
1 42807U 17039E   24191.72123131  .00000288  00000+0  95839-4 0  9993
2 42807  86.3967 289.2755 0002107  93.8927 266.2509 14.34220977368543
IRIDIUM 117             
1 42808U 17039F   24191.74026536  .00000077  00000+0  20516-4 0  9993
2 42808  86.3968 289.2319 0002411  99.9484 260.1984 14.34218342368570
