<?xml version="1.0" encoding="UTF-8"?>
<ndm xmlns:xsi="http://www.w3.org/2001/XMLSchema-instance" xsi:noNamespaceSchemaLocation="https://sanaregistry.org/r/ndmxml_unqualified/ndmxml-2.0.0-master-2.0.xsd">
<omm id="CCSDS_OMM_VERS" version="2.0">
<header><CREATION_DATE/><ORIGINATOR/></header><body><segment><metadata><OBJECT_NAME>IRIDIUM 112</OBJECT_NAME><OBJECT_ID>2017-003J</OBJECT_ID><CENTER_NAME>EARTH</CENTER_NAME><REF_FRAME>TEME</REF_FRAME><TIME_SYSTEM>UTC</TIME_SYSTEM><MEAN_ELEMENT_THEORY>SGP4</MEAN_ELEMENT_THEORY></metadata><data><meanElements><EPOCH>2024-07-09T21:21:41.794848</EPOCH><MEAN_MOTION>14.34220372</MEAN_MOTION><ECCENTRICITY>.000185</ECCENTRICITY><INCLINATION>86.3963</INCLINATION><RA_OF_ASC_NODE>23.8758</RA_OF_ASC_NODE><ARG_OF_PERICENTER>93.1095</ARG_OF_PERICENTER><MEAN_ANOMALY>267.0312</MEAN_ANOMALY></meanElements><tleParameters><EPHEMERIS_TYPE>0</EPHEMERIS_TYPE><CLASSIFICATION_TYPE>U</CLASSIFICATION_TYPE><NORAD_CAT_ID>41925</NORAD_CAT_ID><ELEMENT_SET_NO>999</ELEMENT_SET_NO><REV_AT_EPOCH>39189</REV_AT_EPOCH><BSTAR>.81442E-4</BSTAR><MEAN_MOTION_DOT>.248E-5</MEAN_MOTION_DOT><MEAN_MOTION_DDOT>0</MEAN_MOTION_DDOT></tleParameters></data></segment></body></omm>
<omm id="CCSDS_OMM_VERS" version="2.0">
<header><CREATION_DATE/><ORIGINATOR/></header><body><segment><metadata><OBJECT_NAME>IRIDIUM 111</OBJECT_NAME><OBJECT_ID>2017-003K</OBJECT_ID><CENTER_NAME>EARTH</CENTER_NAME><REF_FRAME>TEME</REF_FRAME><TIME_SYSTEM>UTC</TIME_SYSTEM><MEAN_ELEMENT_THEORY>SGP4</MEAN_ELEMENT_THEORY></metadata><data><meanElements><EPOCH>2024-07-09T22:43:53.990688</EPOCH><MEAN_MOTION>14.34219920</MEAN_MOTION><ECCENTRICITY>.0002129</ECCENTRICITY><INCLINATION>86.3965</INCLINATION><RA_OF_ASC_NODE>23.9069</RA_OF_ASC_NODE><ARG_OF_PERICENTER>98.9659</ARG_OF_PERICENTER><MEAN_ANOMALY>261.1778</MEAN_ANOMALY></meanElements><tleParameters><EPHEMERIS_TYPE>0</EPHEMERIS_TYPE><CLASSIFICATION_TYPE>U</CLASSIFICATION_TYPE><NORAD_CAT_ID>41926</NORAD_CAT_ID><ELEMENT_SET_NO>999</ELEMENT_SET_NO><REV_AT_EPOCH>39188</REV_AT_EPOCH><BSTAR>.11646E-3</BSTAR><MEAN_MOTION_DOT>.346E-5</MEAN_MOTION_DOT><MEAN_MOTION_DDOT>0</MEAN_MOTION_DDOT></tleParameters></data></segment></body></omm>
<omm id="CCSDS_OMM_VERS" version="2.0">
<header><CREATION_DATE/><ORIGINATOR/></header><body><segment><metadata><OBJECT_NAME>IRIDIUM 113</OBJECT_NAME><OBJECT_ID>2017-039A</OBJECT_ID><CENTER_NAME>EARTH</CENTER_NAME><REF_FRAME>TEME</REF_FRAME><TIME_SYSTEM>UTC</TIME_SYSTEM><MEAN_ELEMENT_THEORY>SGP4</MEAN_ELEMENT_THEORY></metadata><data><meanElements><EPOCH>2024-07-09T17:13:39.137376</EPOCH><MEAN_MOTION>14.34217766</MEAN_MOTION><ECCENTRICITY>.0002175</ECCENTRICITY><INCLINATION>86.3960</INCLINATION><RA_OF_ASC_NODE>257.7670</RA_OF_ASC_NODE><ARG_OF_PERICENTER>100.4130</ARG_OF_PERICENTER><MEAN_ANOMALY>259.7311</MEAN_ANOMALY></meanElements><tleParameters><EPHEMERIS_TYPE>0</EPHEMERIS_TYPE><CLASSIFICATION_TYPE>U</CLASSIFICATION_TYPE><NORAD_CAT_ID>42803</NORAD_CAT_ID><ELEMENT_SET_NO>999</ELEMENT_SET_NO><REV_AT_EPOCH>36978</REV_AT_EPOCH><BSTAR>-.59326E-5</BSTAR><MEAN_MOTION_DOT>.3E-7</MEAN_MOTION_DOT><MEAN_MOTION_DDOT>0</MEAN_MOTION_DDOT></tleParameters></data></segment></body></omm>
<omm id="CCSDS_OMM_VERS" version="2.0">
<header><CREATION_DATE/><ORIGINATOR/></header><body><segment><metadata><OBJECT_NAME>IRIDIUM 123</OBJECT_NAME><OBJECT_ID>2017-039B</OBJECT_ID><CENTER_NAME>EARTH</CENTER_NAME><REF_FRAME>TEME</REF_FRAME><TIME_SYSTEM>UTC</TIME_SYSTEM><MEAN_ELEMENT_THEORY>SGP4</MEAN_ELEMENT_THEORY></metadata><data><meanElements><EPOCH>2024-07-09T19:53:50.944704</EPOCH><MEAN_MOTION>14.34217741</MEAN_MOTION><ECCENTRICITY>.0002201</ECCENTRICITY><INCLINATION>86.3968</INCLINATION><RA_OF_ASC_NODE>289.2292</RA_OF_ASC_NODE><ARG_OF_PERICENTER>97.9016</ARG_OF_PERICENTER><MEAN_ANOMALY>262.2429</MEAN_ANOMALY></meanElements><tleParameters><EPHEMERIS_TYPE>0</EPHEMERIS_TYPE><CLASSIFICATION_TYPE>U</CLASSIFICATION_TYPE><NORAD_CAT_ID>42804</NORAD_CAT_ID><ELEMENT_SET_NO>999</ELEMENT_SET_NO><REV_AT_EPOCH>36856</REV_AT_EPOCH><BSTAR>.5309E-5</BSTAR><MEAN_MOTION_DOT>.35E-6</MEAN_MOTION_DOT><MEAN_MOTION_DDOT>0</MEAN_MOTION_DDOT></tleParameters></data></segment></body></omm>
<omm id="CCSDS_OMM_VERS" version="2.0">
<header><CREATION_DATE/><ORIGINATOR/></header><body><segment><metadata><OBJECT_NAME>IRIDIUM 120</OBJECT_NAME><OBJECT_ID>2017-039C</OBJECT_ID><CENTER_NAME>EARTH</CENTER_NAME><REF_FRAME>TEME</REF_FRAME><TIME_SYSTEM>UTC</TIME_SYSTEM><MEAN_ELEMENT_THEORY>SGP4</MEAN_ELEMENT_THEORY></metadata><data><meanElements><EPOCH>2024-07-09T17:04:31.192032</EPOCH><MEAN_MOTION>14.34218175</MEAN_MOTION><ECCENTRICITY>.0002318</ECCENTRICITY><INCLINATION>86.3949</INCLINATION><RA_OF_ASC_NODE>257.6440</RA_OF_ASC_NODE><ARG_OF_PERICENTER>93.1498</ARG_OF_PERICENTER><MEAN_ANOMALY>266.9963</MEAN_ANOMALY></meanElements><tleParameters><EPHEMERIS_TYPE>0</EPHEMERIS_TYPE><CLASSIFICATION_TYPE>U</CLASSIFICATION_TYPE><NORAD_CAT_ID>42805</NORAD_CAT_ID><ELEMENT_SET_NO>999</ELEMENT_SET_NO><REV_AT_EPOCH>36977</REV_AT_EPOCH><BSTAR>.76041E-4</BSTAR><MEAN_MOTION_DOT>.233E-5</MEAN_MOTION_DOT><MEAN_MOTION_DDOT>0</MEAN_MOTION_DDOT></tleParameters></data></segment></body></omm>
<omm id="CCSDS_OMM_VERS" version="2.0">
<header><CREATION_DATE/><ORIGINATOR/></header><body><segment><metadata><OBJECT_NAME>IRIDIUM 115</OBJECT_NAME><OBJECT_ID>2017-039D</OBJECT_ID><CENTER_NAME>EARTH</CENTER_NAME><REF_FRAME>TEME</REF_FRAME><TIME_SYSTEM>UTC</TIME_SYSTEM><MEAN_ELEMENT_THEORY>SGP4</MEAN_ELEMENT_THEORY></metadata><data><meanElements><EPOCH>2024-07-09T17:39:53.646912</EPOCH><MEAN_MOTION>14.43274194</MEAN_MOTION><ECCENTRICITY>.0002347</ECCENTRICITY><INCLINATION>86.4488</INCLINATION><RA_OF_ASC_NODE>257.6617</RA_OF_ASC_NODE><ARG_OF_PERICENTER>103.3457</ARG_OF_PERICENTER><MEAN_ANOMALY>256.8005</MEAN_ANOMALY></meanElements><tleParameters><EPHEMERIS_TYPE>0</EPHEMERIS_TYPE><CLASSIFICATION_TYPE>U</CLASSIFICATION_TYPE><NORAD_CAT_ID>42806</NORAD_CAT_ID><ELEMENT_SET_NO>999</ELEMENT_SET_NO><REV_AT_EPOCH>37222</REV_AT_EPOCH><BSTAR>.13199E-3</BSTAR><MEAN_MOTION_DOT>.464E-5</MEAN_MOTION_DOT><MEAN_MOTION_DDOT>0</MEAN_MOTION_DDOT></tleParameters></data></segment></body></omm>
<omm id="CCSDS_OMM_VERS" version="2.0">
<header><CREATION_DATE/><ORIGINATOR/></header><body><segment><metadata><OBJECT_NAME>IRIDIUM 118</OBJECT_NAME><OBJECT_ID>2017-039E</OBJECT_ID><CENTER_NAME>EARTH</CENTER_NAME><REF_FRAME>TEME</REF_FRAME><TIME_SYSTEM>UTC</TIME_SYSTEM><MEAN_ELEMENT_THEORY>SGP4</MEAN_ELEMENT_THEORY></metadata><data><meanElements><EPOCH>2024-07-09T17:18:34.385184</EPOCH><MEAN_MOTION>14.34220977</MEAN_MOTION><ECCENTRICITY>.0002107</ECCENTRICITY><INCLINATION>86.3967</INCLINATION><RA_OF_ASC_NODE>289.2755</RA_OF_ASC_NODE><ARG_OF_PERICENTER>93.8927</ARG_OF_PERICENTER><MEAN_ANOMALY>266.2509</MEAN_ANOMALY></meanElements><tleParameters><EPHEMERIS_TYPE>0</EPHEMERIS_TYPE><CLASSIFICATION_TYPE>U</CLASSIFICATION_TYPE><NORAD_CAT_ID>42807</NORAD_CAT_ID><ELEMENT_SET_NO>999</ELEMENT_SET_NO><REV_AT_EPOCH>36854</REV_AT_EPOCH><BSTAR>.95839E-4</BSTAR><MEAN_MOTION_DOT>.288E-5</MEAN_MOTION_DOT><MEAN_MOTION_DDOT>0</MEAN_MOTION_DDOT></tleParameters></data></segment></body></omm>
<omm id="CCSDS_OMM_VERS" version="2.0">
<header><CREATION_DATE/><ORIGINATOR/></header><body><segment><metadata><OBJECT_NAME>IRIDIUM 117</OBJECT_NAME><OBJECT_ID>2017-039F</OBJECT_ID><CENTER_NAME>EARTH</CENTER_NAME><REF_FRAME>TEME</REF_FRAME><TIME_SYSTEM>UTC</TIME_SYSTEM><MEAN_ELEMENT_THEORY>SGP4</MEAN_ELEMENT_THEORY></metadata><data><meanElements><EPOCH>2024-07-09T17:45:58.927104</EPOCH><MEAN_MOTION>14.34218342</MEAN_MOTION><ECCENTRICITY>.0002411</ECCENTRICITY><INCLINATION>86.3968</INCLINATION><RA_OF_ASC_NODE>289.2319</RA_OF_ASC_NODE><ARG_OF_PERICENTER>99.9484</ARG_OF_PERICENTER><MEAN_ANOMALY>260.1984</MEAN_ANOMALY></meanElements><tleParameters><EPHEMERIS_TYPE>0</EPHEMERIS_TYPE><CLASSIFICATION_TYPE>U</CLASSIFICATION_TYPE><NORAD_CAT_ID>42808</NORAD_CAT_ID><ELEMENT_SET_NO>999</ELEMENT_SET_NO><REV_AT_EPOCH>36857</REV_AT_EPOCH><BSTAR>.20516E-4</BSTAR><MEAN_MOTION_DOT>.77E-6</MEAN_MOTION_DOT><MEAN_MOTION_DDOT>0</MEAN_MOTION_DDOT></tleParameters></data></segment></body></omm>

</ndm>
